CCSDS_OMM_VERS,COMMENT,CREATION_DATE,ORIGINATOR,OBJECT_NAME,OBJECT_ID,CENTER_NAME,REF_FRAME,TIME_SYSTEM,MEAN_ELEMENT_THEORY,EPOCH,MEAN_MOTION,ECCENTRICITY,INCLINATION,RA_OF_ASC_NODE,ARG_OF_PERICENTER,MEAN_ANOMALY,EPHEMERIS_TYPE,CLASSIFICATION_TYPE,NORAD_CAT_ID,ELEMENT_SET_NO,REV_AT_EPOCH,BSTAR,MEAN_MOTION_DOT,MEAN_MOTION_DDOT,SEMIMAJOR_AXIS,PERIOD,APOAPSIS,PERIAPSIS,OBJECT_TYPE,RCS_SIZE,COUNTRY_CODE,LAUNCH_DATE,SITE,DECAY_DATE,FILE,GP_ID,TLE_LINE0,TLE_LINE1,TLE_LINE2
"3.0","GENERATED VIA SPACE-TRACK.ORG API","2026-03-25T17:29:05","18 SPCS","CZ-6A DEB","2022-151VM","EARTH","TEME","UTC","SGP4","2026-03-25T03:40:01.957152","14.78655482","0.00672511","98.6321","153.6577","163.6981","196.6412","0","U","55196","999","17324","0.00268916400000","0.00020460","0.0000000000000","7011.708","97.386","680.728","586.419","DEBRIS","SMALL","PRC","2022-11-11","TSC","","5096884","317021772","0 CZ-6A DEB","1 55196U 22151VM  26084.15280043  .00020460  00000-0  26892-2 0  9991","2 55196  98.6321 153.6577 0067251 163.6981 196.6412 14.78655482173242"
"3.0","GENERATED VIA SPACE-TRACK.ORG API","2026-03-25T17:29:05","18 SPCS","CZ-6A DEB","2022-151VS","EARTH","TEME","UTC","SGP4","2026-03-25T03:54:29.563488","14.92795893","0.00535949","98.6332","164.3868","131.0730","229.5135","0","U","55201","999","17387","0.00352079540000","0.00037551","0.0000000000000","6967.360","96.463","626.566","551.883","DEBRIS","SMALL","PRC","2022-11-11","TSC","","5096884","317021273","0 CZ-6A DEB","1 55201U 22151VS  26084.16284217  .00037551  00000-0  35208-2 0  9996","2 55201  98.6332 164.3868 0053595 131.0730 229.5135 14.92795893173874"
"3.0","GENERATED VIA SPACE-TRACK.ORG API","2026-03-25T17:29:05","18 SPCS","CZ-6A DEB","2022-151VV","EARTH","TEME","UTC","SGP4","2026-03-25T01:37:15.560544","14.83395282","0.00666555","98.6185","152.8910","159.0513","201.3453","0","U","55204","999","17336","0.00314880880000","0.00026894","0.0000000000000","6996.764","97.075","665.267","571.992","DEBRIS","SMALL","PRC","2022-11-11","TSC","","5096884","317021274","0 CZ-6A DEB","1 55204U 22151VV  26084.06754121  .00026894  00000-0  31488-2 0  9998","2 55204  98.6185 152.8910 0066655 159.0513 201.3453 14.83395282173366"
"3.0","GENERATED VIA SPACE-TRACK.ORG API","2026-03-25T17:29:05","18 SPCS","CZ-6A DEB","2022-151VW","EARTH","TEME","UTC","SGP4","2026-03-25T03:22:33.440448","14.65872935","0.00743583","98.6174","142.4118","183.4591","176.6107","0","U","55205","999","17270","0.00150617030000","0.00008525","0.0000000000000","7052.411","98.235","726.717","621.836","DEBRIS","SMALL","PRC","2022-11-11","TSC","","5096884","317021775","0 CZ-6A DEB","1 55205U 22151VW  26084.14066482  .00008525  00000-0  15062-2 0  9995","2 55205  98.6174 142.4118 0074358 183.4591 176.6107 14.65872935172708"
"3.0","GENERATED VIA SPACE-TRACK.ORG API","2026-03-25T17:29:05","18 SPCS","CZ-6A DEB","2022-151VY","EARTH","TEME","UTC","SGP4","2026-03-25T03:34:51.218688","14.78935621","0.00674544","98.6373","154.4292","162.2007","198.1588","0","U","55207","999","17328","0.00265014600000","0.00020302","0.0000000000000","7010.823","97.367","679.979","585.397","DEBRIS","SMALL","PRC","2022-11-11","TSC","","5096884","317021776","0 CZ-6A DEB","1 55207U 22151VY  26084.14920392  .00020302  00000-0  26501-2 0  9993","2 55207  98.6373 154.4292 0067454 162.2007 198.1588 14.78935621173285"
"3.0","GENERATED VIA SPACE-TRACK.ORG API","2026-03-25T17:29:05","18 SPCS","CZ-6A DEB","2022-151VZ","EARTH","TEME","UTC","SGP4","2026-03-25T10:31:07.892256","14.86602044","0.00542794","98.6279","152.8530","164.5912","195.6970","0","U","55208","999","17305","0.00359727370000","0.00032844","0.0000000000000","6986.699","96.865","646.487","570.640","DEBRIS","SMALL","PRC","2022-11-11","TSC","","5096884","317021276","0 CZ-6A DEB","1 55208U 22151VZ  26084.43828579  .00032844  00000-0  35973-2 0  9997","2 55208  98.6279 152.8530 0054279 164.5912 195.6970 14.86602044173050"
"3.0","GENERATED VIA SPACE-TRACK.ORG API","2026-03-25T17:29:05","18 SPCS","CZ-6A DEB","2022-151WF","EARTH","TEME","UTC","SGP4","2026-03-25T08:04:05.657376","14.70928239","0.01043109","98.4395","129.8966","122.5782","238.5548","0","U","55214","999","17321","0.00126367880000","0.00008374","0.0000000000000","7036.243","97.897","731.504","584.713","DEBRIS","SMALL","PRC","2022-11-11","TSC","","5096884","317021278","0 CZ-6A DEB","1 55214U 22151WF  26084.33617659  .00008374  00000-0  12637-2 0  9991","2 55214  98.4395 129.8966 0104311 122.5782 238.5548 14.70928239173219"
"3.0","GENERATED VIA SPACE-TRACK.ORG API","2026-03-25T17:29:05","18 SPCS","CZ-6A DEB","2022-151WG","EARTH","TEME","UTC","SGP4","2026-03-25T14:36:29.954592","14.74692591","0.00571071","98.6361","142.1616","204.1518","155.7010","0","U","55215","999","17238","0.00299662630000","0.00020543","0.0000000000000","7024.264","97.647","686.243","606.016","DEBRIS","SMALL","PRC","2022-11-11","TSC","","5096884","317021779","0 CZ-6A DEB","1 55215U 22151WG  26084.60868003  .00020543  00000-0  29966-2 0  9998","2 55215  98.6361 142.1616 0057107 204.1518 155.7010 14.74692591172383"
"3.0","GENERATED VIA SPACE-TRACK.ORG API","2026-03-25T17:29:05","18 SPCS","CZ-6A DEB","2022-151WH","EARTH","TEME","UTC","SGP4","2026-03-25T03:14:07.614240","14.63139106","0.00776651","98.6111","135.2764","205.6895","154.0439","0","U","55216","999","17211","0.00145550950000","0.00007768","0.0000000000000","7061.193","98.419","737.899","628.217","DEBRIS","SMALL","PRC","2022-11-11","TSC","","5096884","317021279","0 CZ-6A DEB","1 55216U 22151WH  26084.13481035  .00007768  00000-0  14555-2 0  9995","2 55216  98.6111 135.2764 0077665 205.6895 154.0439 14.63139106172113"
"3.0","GENERATED VIA SPACE-TRACK.ORG API","2026-03-25T17:29:05","18 SPCS","CZ-6A DEB","2022-151WL","EARTH","TEME","UTC","SGP4","2026-03-25T02:56:58.917696","14.61626448","0.00833806","98.6147","139.2354","198.2387","161.5818","0","U","55219","999","17222","0.00127400280000","0.00006606","0.0000000000000","7066.064","98.520","746.846","629.012","DEBRIS","SMALL","PRC","2022-11-11","TSC","","5096884","317021280","0 CZ-6A DEB","1 55219U 22151WL  26084.12290414  .00006606  00000-0  12740-2 0  9990","2 55219  98.6147 139.2354 0083381 198.2387 161.5818 14.61626448172223"
"3.0","GENERATED VIA SPACE-TRACK.ORG API","2026-03-25T17:29:05","18 SPCS","CZ-6A DEB","2022-151WP","EARTH","TEME","UTC","SGP4","2026-03-25T09:08:45.543552","14.69951928","0.00722701","98.6299","145.0494","187.6960","172.3141","0","U","55222","999","17251","0.00205189140000","0.00012757","0.0000000000000","7039.359","97.962","712.097","610.350","DEBRIS","SMALL","PRC","2022-11-11","TSC","","5096884","317021281","0 CZ-6A DEB","1 55222U 22151WP  26084.38108268  .00012757  00000-0  20519-2 0  9994","2 55222  98.6299 145.0494 0072270 187.6960 172.3141 14.69951928172512"
"3.0","GENERATED VIA SPACE-TRACK.ORG API","2026-03-25T17:29:05","18 SPCS","CZ-6A DEB","2022-151WV","EARTH","TEME","UTC","SGP4","2026-03-25T10:20:04.275456","14.75300043","0.00668752","98.6287","150.1092","173.1585","187.0551","0","U","55228","999","17279","0.00224540920000","0.00015743","0.0000000000000","7022.336","97.607","691.163","597.239","DEBRIS","SMALL","PRC","2022-11-11","TSC","","5096884","317021282","0 CZ-6A DEB","1 55228U 22151WV  26084.43060504  .00015743  00000-0  22454-2 0  9994","2 55228  98.6287 150.1092 0066875 173.1585 187.0551 14.75300043172794"
"3.0","GENERATED VIA SPACE-TRACK.ORG API","2026-03-22T02:33:08","18 SPCS","CZ-6A DEB","2022-151WY","EARTH","TEME","UTC","SGP4","2026-03-21T16:05:38.761728","14.76516426","0.00779018","98.6226","154.8098","144.7414","215.8983","0","U","55231","999","17277","0.00342047290000","0.00025076","0.0000000000000","7018.479","97.527","695.019","585.668","DEBRIS","SMALL","PRC","2022-11-11","TSC","","5094829","316754802","0 CZ-6A DEB","1 55231U 22151WY  26080.67058752  .00025076  00000-0  34205-2 0  9999","2 55231  98.6226 154.8098 0077902 144.7414 215.8983 14.76516426172778"
"3.0","GENERATED VIA SPACE-TRACK.ORG API","2026-03-25T17:29:05","18 SPCS","CZ-6A DEB","2022-151WZ","EARTH","TEME","UTC","SGP4","2026-03-25T02:56:11.798592","14.72019872","0.00817124","98.6264","154.0961","149.4146","211.1862","0","U","55232","999","17299","0.00190073280000","0.00012540","0.0000000000000","7032.764","97.825","712.096","597.163","DEBRIS","SMALL","PRC","2022-11-11","TSC","","5096884","317021283","0 CZ-6A DEB","1 55232U 22151WZ  26084.12235878  .00012540  00000-0  19007-2 0  9995","2 55232  98.6264 154.0961 0081712 149.4146 211.1862 14.72019872172998"
"3.0","GENERATED VIA SPACE-TRACK.ORG API","2026-03-25T17:29:05","18 SPCS","CZ-6A DEB","2022-151XC","EARTH","TEME","UTC","SGP4","2026-03-25T02:46:24.782304","14.67822405","0.00784658","98.6375","145.8469","184.3899","175.6625","0","U","55235","999","17642","0.00184497090000","0.00010989","0.0000000000000","7046.165","98.105","723.319","612.742","DEBRIS","SMALL","PRC","2022-11-11","TSC","","5096884","317021284","0 CZ-6A DEB","1 55235U 22151XC  26084.11556461  .00010989  00000-0  18450-2 0  9997","2 55235  98.6375 145.8469 0078466 184.3899 175.6625 14.67822405176421"
"3.0","GENERATED VIA SPACE-TRACK.ORG API","2026-03-25T17:29:05","18 SPCS","CZ-6A DEB","2022-151XR","EARTH","TEME","UTC","SGP4","2026-03-25T04:21:34.625664","14.87941368","0.00286465","98.7617","172.3318","137.5134","222.8304","0","U","55519","999","17325","0.00393509880000","0.00036448","0.0000000000000","6982.506","96.778","624.373","584.368","DEBRIS","SMALL","PRC","2022-11-11","TSC","","5096884","317022392","0 CZ-6A DEB","1 55519U 22151XR  26084.18165076  .00036448  00000-0  39351-2 0  9998","2 55519  98.7617 172.3318 0028646 137.5134 222.8304 14.87941368173250"
